CCSDS_OEM_VERS = 1.0
CREATION_DATE  = 2017-05-11T11:17:47
ORIGINATOR     = GMAT USER

META_START
OBJECT_NAME          = MOPSSat_alt_35785_km_RAAN_90_099
OBJECT_ID            = SatId
CENTER_NAME          = Earth
REF_FRAME            = EME2000
TIME_SYSTEM          = UTC
START_TIME           = 2017-01-01T00:00:00.000
USEABLE_START_TIME   = 2017-01-01T00:00:00.000
USEABLE_STOP_TIME    = 2017-01-02T00:00:00.000
STOP_TIME            = 2017-01-02T00:00:00.000
INTERPOLATION        = Lagrange
INTERPOLATION_DEGREE = 7 
META_STOP


                                                                                   

2017-01-01T13:35:50.000   1.595567034889019e+04  -4.320563824099760e+04  -2.779112189512779e+01   2.590141048696093e+00   1.070676758649671e+00  -4.614148910867377e-03
2017-01-01T13:36:00.000   1.598156850330623e+04  -4.319492266044574e+04  -2.783725795054992e+01   2.589489601321822e+00   1.072439278992960e+00  -4.613061760033661e-03
2017-01-01T13:36:10.000   1.600746013724344e+04  -4.318418945646736e+04  -2.788338312382250e+01   2.588837051854537e+00   1.074201484824371e+00  -4.611972657183037e-03
2017-01-01T13:36:20.000   1.603334523994357e+04  -4.317343863210153e+04  -2.792949739589311e+01   2.588183400327075e+00   1.075963375594976e+00  -4.610881602327441e-03
2017-01-01T13:36:30.000   1.605922380058941e+04  -4.316267019041734e+04  -2.797560074760381e+01   2.587528646773877e+00   1.077724950751649e+00  -4.609788595481465e-03
2017-01-01T13:36:40.000   1.608509580843712e+04  -4.315188413445978e+04  -2.802169315992685e+01   2.586872791227675e+00   1.079486209746065e+00  -4.608693636656863e-03
2017-01-01T13:36:50.000   1.611096125248017e+04  -4.314108046738680e+04  -2.806777461336612e+01   2.586215833727843e+00   1.081247152011845e+00  -4.607596725876431e-03
2017-01-01T13:37:00.000   1.613682012169909e+04  -4.313025919236816e+04  -2.811384508840198e+01   2.585557774314241e+00   1.083007776981540e+00  -4.606497863163781e-03
2017-01-01T13:37:10.000   1.616267240506111e+04  -4.311942031258449e+04  -2.815990456549058e+01   2.584898613027159e+00   1.084768084086607e+00  -4.605397048543227e-03
2017-01-01T13:37:20.000   1.618851809127242e+04  -4.310856383133376e+04  -2.820595302462251e+01   2.584238349913798e+00   1.086528072740527e+00  -4.604294282050631e-03
2017-01-01T13:37:30.000   1.621435716911217e+04  -4.309768975188884e+04  -2.825199044591786e+01   2.583576985019595e+00   1.088287742361566e+00  -4.603189563718892e-03
2017-01-01T13:37:40.000   1.624018962730083e+04  -4.308679807755318e+04  -2.829801680939165e+01   2.582914518391630e+00   1.090047092363799e+00  -4.602082893583641e-03
2017-01-01T13:37:50.000   1.626601545508311e+04  -4.307588881141529e+04  -2.834403209599256e+01   2.582250950063667e+00   1.091806122196818e+00  -4.600974271658266e-03
2017-01-01T13:38:00.000   1.629183464164498e+04  -4.306496195659418e+04  -2.839003628656408e+01   2.581586280071103e+00   1.093564831306023e+00  -4.599863697958863e-03
2017-01-01T13:38:10.000   1.631764717624558e+04  -4.305401751618419e+04  -2.843602936207950e+01   2.580920508447604e+00   1.095323219141606e+00  -4.598751172498632e-03
2017-01-01T13:38:20.000   1.634345304788195e+04  -4.304305549339436e+04  -2.848201130304494e+01   2.580253635233575e+00   1.097081285135729e+00  -4.597636695302006e-03
2017-01-01T13:38:30.000   1.636925224553828e+04  -4.303207589144556e+04  -2.852798208994290e+01   2.579585660469919e+00   1.098839028719483e+00  -4.596520266394248e-03
2017-01-01T13:38:40.000   1.639504475818545e+04  -4.302107871356965e+04  -2.857394170323181e+01   2.578916584197975e+00   1.100596449322865e+00  -4.595401885801329e-03
2017-01-01T13:38:50.000   1.642083057453396e+04  -4.301006396311748e+04  -2.861989012290552e+01   2.578246406466097e+00   1.102353546357925e+00  -4.594281553560955e-03
2017-01-01T13:39:00.000   1.644660968336711e+04  -4.299903164341427e+04  -2.866582732908723e+01   2.577575127320848e+00   1.104110319241486e+00  -4.593159269707834e-03
2017-01-01T13:39:10.000   1.647238207340714e+04  -4.298798175781746e+04  -2.871175330179078e+01   2.576902746810521e+00   1.105866767386015e+00  -4.592035034279551e-03
2017-01-01T13:39:20.000   1.649814773390661e+04  -4.297691430946300e+04  -2.875766802197457e+01   2.576229264969709e+00   1.107622890239928e+00  -4.590908847290770e-03
2017-01-01T13:39:30.000   1.652390665405544e+04  -4.296582930151960e+04  -2.880357147048488e+01   2.575554681834765e+00   1.109378687247180e+00  -4.589780708759083e-03
2017-01-01T13:39:40.000   1.654965882313407e+04  -4.295472673712317e+04  -2.884946362832886e+01   2.574878997439820e+00   1.111134157857702e+00  -4.588650618698360e-03
2017-01-01T13:39:50.000   1.657540423010149e+04  -4.294360661955220e+04  -2.889534447594039e+01   2.574202211827450e+00   1.112889301499329e+00  -4.587518577136584e-03
2017-01-01T13:40:00.000   1.660114286393534e+04  -4.293246895208329e+04  -2.894121399378602e+01   2.573524325039890e+00   1.114644117600972e+00  -4.586384584101160e-03
2017-01-01T13:40:10.000   1.662687471355591e+04  -4.292131373802352e+04  -2.898707216222976e+01   2.572845337120996e+00   1.116398605587442e+00  -4.585248639622193e-03
2017-01-01T13:40:20.000   1.665259976784730e+04  -4.291014098070261e+04  -2.903291896157048e+01   2.572165248115784e+00   1.118152764880878e+00  -4.584110743731717e-03
2017-01-01T13:40:30.000   1.667831801568259e+04  -4.289895068346087e+04  -2.907875437208702e+01   2.571484058069686e+00   1.119906594902474e+00  -4.582970896462448e-03
2017-01-01T13:40:40.000   1.670402944593317e+04  -4.288774284964540e+04  -2.912457837405469e+01   2.570801767028308e+00   1.121660095073114e+00  -4.581829097847393e-03
2017-01-01T13:40:50.000   1.672973404756093e+04  -4.287651748257037e+04  -2.917039094790960e+01   2.570118375035041e+00   1.123413264819653e+00  -4.580685347915839e-03
2017-01-01T13:41:00.000   1.675543180955667e+04  -4.286527458554315e+04  -2.921619207413891e+01   2.569433882132623e+00   1.125166103570722e+00  -4.579539646695988e-03
2017-01-01T13:41:10.000   1.678112272094021e+04  -4.285401416186445e+04  -2.926198173328095e+01   2.568748288363170e+00   1.126918610756733e+00  -4.578391994214973e-03
2017-01-01T13:41:20.000   1.680680677082125e+04  -4.284273621480084e+04  -2.930775990603393e+01   2.568061593766479e+00   1.128670785814042e+00  -4.577242390496040e-03
2017-01-01T13:41:30.000   1.683248394830786e+04  -4.283144074762543e+04  -2.935352657309251e+01   2.567373798382528e+00   1.130422628178692e+00  -4.576090835562723e-03
2017-01-01T13:41:40.000   1.685815424249713e+04  -4.282012776362216e+04  -2.939928171513146e+01   2.566684902251723e+00   1.132174137285783e+00  -4.574937329439257e-03
2017-01-01T13:41:50.000   1.688381764244929e+04  -4.280879726609598e+04  -2.944502531275926e+01   2.565994905415522e+00   1.133925312567707e+00  -4.573781872151631e-03
2017-01-01T13:42:00.000   1.690947413716760e+04  -4.279744925838309e+04  -2.949075734648250e+01   2.565303807917059e+00   1.135676153452773e+00  -4.572624463728649e-03
2017-01-01T13:42:10.000   1.693512371567373e+04  -4.278608374381725e+04  -2.953647779683998e+01   2.564611609799092e+00   1.137426659370345e+00  -4.571465104198455e-03
2017-01-01T13:42:20.000   1.696076636667032e+04  -4.277470072588105e+04  -2.958218664380143e+01   2.563918311113226e+00   1.139176829727812e+00  -4.570303793604002e-03
2017-01-01T13:42:30.000   1.698640207895003e+04  -4.276330020802293e+04  -2.962788386749640e+01   2.563223911908749e+00   1.140926663938500e+00  -4.569140531984366e-03
2017-01-01T13:42:40.000   1.701203084124326e+04  -4.275188219372488e+04  -2.967356944794309e+01   2.562528412236777e+00   1.142676161411295e+00  -4.567975319381665e-03
2017-01-01T13:42:50.000   1.703765264280783e+04  -4.274044668624024e+04  -2.971924336609940e+01   2.561831812134267e+00   1.144425321590880e+00  -4.566808155814295e-03
2017-01-01T13:43:00.000   1.706326747284085e+04  -4.272899368885517e+04  -2.976490560281441e+01   2.561134111639946e+00   1.146174143917594e+00  -4.565639041303607e-03
2017-01-01T13:43:10.000   1.708887532061199e+04  -4.271752320482967e+04  -2.981055613906618e+01   2.560435310790734e+00   1.147922627836532e+00  -4.564467975867919e-03
2017-01-01T13:43:20.000   1.711447617513099e+04  -4.270603523754388e+04  -2.985619495536893e+01   2.559735409630629e+00   1.149670772774850e+00  -4.563294959537385e-03
2017-01-01T13:43:30.000   1.714007002539484e+04  -4.269452979039012e+04  -2.990182203221363e+01   2.559034408204154e+00   1.151418578158632e+00  -4.562119992343024e-03
2017-01-01T13:43:40.000   1.716565686038735e+04  -4.268300686677195e+04  -2.994743735006735e+01   2.558332306556289e+00   1.153166043412866e+00  -4.560943074316624e-03
2017-01-01T13:43:50.000   1.719123666883413e+04  -4.267146647021736e+04  -2.999304088893626e+01   2.557629104739373e+00   1.154913167944688e+00  -4.559764205502295e-03
2017-01-01T13:44:00.000   1.721680943953302e+04  -4.265990860422729e+04  -3.003863262895483e+01   2.556924802803869e+00   1.156659951165967e+00  -4.558583385941008e-03
2017-01-01T13:44:10.000   1.724237516122381e+04  -4.264833327233493e+04  -3.008421255015358e+01   2.556219400801988e+00   1.158406392484410e+00  -4.557400615676642e-03
2017-01-01T13:44:20.000   1.726793382316524e+04  -4.263674047784478e+04  -3.012978063348767e+01   2.555512898771772e+00   1.160152491342963e+00  -4.556215894729313e-03
2017-01-01T13:44:30.000   1.729348541455790e+04  -4.262513022409340e+04  -3.017533685980817e+01   2.554805296752998e+00   1.161898247180402e+00  -4.555029223122041e-03
2017-01-01T13:44:40.000   1.731902992467488e+04  -4.261350251439086e+04  -3.022088121009489e+01   2.554096594783604e+00   1.163643659440248e+00  -4.553840600874750e-03
2017-01-01T13:44:50.000   1.734456734252989e+04  -4.260185735216889e+04  -3.026641366486484e+01   2.553386792908710e+00   1.165388727548115e+00  -4.552650028019387e-03
